[{"OBJECT_NAME":"TOMORROW-S4","OBJECT_ID":"2024-247K","EPOCH":"2026-03-09T12:47:35.836224","MEAN_MOTION":15.27717249,"ECCENTRICITY":0.00044343,"INCLINATION":44.9818,"RA_OF_ASC_NODE":117.9996,"ARG_OF_PERICENTER":210.4078,"MEAN_ANOMALY":149.6548,"EPHEMERIS_TYPE":0,"CLASSIFICATION_TYPE":"U","NORAD_CAT_ID":62386,"ELEMENT_SET_NO":999,"REV_AT_EPOCH":6770,"BSTAR":0.00046927249,"MEAN_MOTION_DOT":0.00012677,"MEAN_MOTION_DDOT":0},{"OBJECT_NAME":"STARLINK-35453","OBJECT_ID":"2025-223AA","EPOCH":"2026-03-09T21:33:40.614336","MEAN_MOTION":15.30182544,"ECCENTRICITY":9.909e-5,"INCLINATION":53.1584,"RA_OF_ASC_NODE":293.4828,"ARG_OF_PERICENTER":71.4002,"MEAN_ANOMALY":288.7107,"EPHEMERIS_TYPE":0,"CLASSIFICATION_TYPE":"U","NORAD_CAT_ID":65878,"ELEMENT_SET_NO":999,"REV_AT_EPOCH":2423,"BSTAR":-5.0444071e-5,"MEAN_MOTION_DOT":-1.852e-5,"MEAN_MOTION_DDOT":0}]
